[{"OBJECT_NAME":"CHINASAT 19 (ZX 19)","OBJECT_ID":"2022-148A","EPOCH":"2024-01-25T14:00:45.808128","MEAN_MOTION":1.00272377,"ECCENTRICITY":0.0006851,"INCLINATION":0.0042,"RA_OF_ASC_NODE":17.3941,"ARG_OF_PERICENTER":248.8627,"MEAN_ANOMALY":231.6549,"EPHEMERIS_TYPE":0,"CLASSIFICATION_TYPE":"U","NORAD_CAT_ID":54230,"ELEMENT_SET_NO":999,"REV_AT_EPOCH":461,"BSTAR":0,"MEAN_MOTION_DOT":-7.9e-7,"MEAN_MOTION_DDOT":0},{"OBJECT_NAME":"NOAA 21 (JPSS-2)","OBJECT_ID":"2022-150A","EPOCH":"2024-01-25T19:11:08.646432","MEAN_MOTION":14.19565826,"ECCENTRICITY":0.0001228,"INCLINATION":98.7395,"RA_OF_ASC_NODE":325.4753,"ARG_OF_PERICENTER":103.9577,"MEAN_ANOMALY":256.1736,"EPHEMERIS_TYPE":0,"CLASSIFICATION_TYPE":"U","NORAD_CAT_ID":54234,"ELEMENT_SET_NO":999,"REV_AT_EPOCH":6263,"BSTAR":0.0001349,"MEAN_MOTION_DOT":2.41e-6,"MEAN_MOTION_DDOT":0},{"OBJECT_NAME":"YUNHAI 3","OBJECT_ID":"2022-151A","EPOCH":"2024-01-25T20:22:26.173056","MEAN_MOTION":14.13261955,"ECCENTRICITY":0.000173,"INCLINATION":98.8195,"RA_OF_ASC_NODE":34.6158,"ARG_OF_PERICENTER":70.8828,"MEAN_ANOMALY":289.2532,"EPHEMERIS_TYPE":0,"CLASSIFICATION_TYPE":"U","NORAD_CAT_ID":54235,"ELEMENT_SET_NO":999,"REV_AT_EPOCH":6213,"BSTAR":7.4608e-5,"MEAN_MOTION_DOT":9.6e-7,"MEAN_MOTION_DDOT":0},{"OBJECT_NAME":"GALAXY 31 (G-31)","OBJECT_ID":"2022-153A","EPOCH":"2024-01-24T22:45:57.300768","MEAN_MOTION":1.0027268,"ECCENTRICITY":0.0002643,"INCLINATION":0.0067,"RA_OF_ASC_NODE":26.633,"ARG_OF_PERICENTER":277.1617,"MEAN_ANOMALY":40.4278,"EPHEMERIS_TYPE":0,"CLASSIFICATION_TYPE":"U","NORAD_CAT_ID":54243,"ELEMENT_SET_NO":999,"REV_AT_EPOCH":436,"BSTAR":0,"MEAN_MOTION_DOT":1.4e-7,"MEAN_MOTION_DDOT":0},{"OBJECT_NAME":"GALAXY 32 (G-32)","OBJECT_ID":"2022-153B","EPOCH":"2024-01-25T14:22:39.144288","MEAN_MOTION":1.00272405,"ECCENTRICITY":0.0002716,"INCLINATION":0.0154,"RA_OF_ASC_NODE":18.2137,"ARG_OF_PERICENTER":313.099,"MEAN_ANOMALY":277.7164,"EPHEMERIS_TYPE":0,"CLASSIFICATION_TYPE":"U","NORAD_CAT_ID":54244,"ELEMENT_SET_NO":999,"REV_AT_EPOCH":440,"BSTAR":0,"MEAN_MOTION_DOT":-1.73e-6,"MEAN_MOTION_DDOT":0},{"OBJECT_NAME":"YAOGAN-34 03","OBJECT_ID":"2022-154A","EPOCH":"2024-01-25T07:00:48.477600","MEAN_MOTION":13.45288448,"ECCENTRICITY":0.0038518,"INCLINATION":63.409,"RA_OF_ASC_NODE":346.3555,"ARG_OF_PERICENTER":347.298,"MEAN_ANOMALY":12.7072,"EPHEMERIS_TYPE":0,"CLASSIFICATION_TYPE":"U","NORAD_CAT_ID":54249,"ELEMENT_SET_NO":999,"REV_AT_EPOCH":5868,"BSTAR":9.408e-5,"MEAN_MOTION_DOT":-3.4e-7,"MEAN_MOTION_DDOT":0},{"OBJECT_NAME":"JILIN-1 GAOFEN 03D08","OBJECT_ID":"2022-155A","EPOCH":"2024-01-25T14:11:42.386784","MEAN_MOTION":15.1845182,"ECCENTRICITY":0.0009131,"INCLINATION":97.5527,"RA_OF_ASC_NODE":135.898,"ARG_OF_PERICENTER":212.2438,"MEAN_ANOMALY":147.8238,"EPHEMERIS_TYPE":0,"CLASSIFICATION_TYPE":"U","NORAD_CAT_ID":54251,"ELEMENT_SET_NO":999,"REV_AT_EPOCH":6584,"BSTAR":0.00078483,"MEAN_MOTION_DOT":0.00016136,"MEAN_MOTION_DDOT":0},{"OBJECT_NAME":"JILIN-1 GAOFEN 03D51","OBJECT_ID":"2022-155B","EPOCH":"2024-01-25T20:18:47.954304","MEAN_MOTION":15.1844604,"ECCENTRICITY":0.0010176,"INCLINATION":97.5554,"RA_OF_ASC_NODE":136.3225,"ARG_OF_PERICENTER":211.7762,"MEAN_ANOMALY":148.2859,"EPHEMERIS_TYPE":0,"CLASSIFICATION_TYPE":"U","NORAD_CAT_ID":54252,"ELEMENT_SET_NO":999,"REV_AT_EPOCH":6588,"BSTAR":0.00085727,"MEAN_MOTION_DOT":0.00017637,"MEAN_MOTION_DDOT":0},{"OBJECT_NAME":"JILIN-1 GAOFEN 03D53","OBJECT_ID":"2022-155C","EPOCH":"2024-01-25T19:15:47.344320","MEAN_MOTION":15.18466126,"ECCENTRICITY":0.0011036,"INCLINATION":97.5523,"RA_OF_ASC_NODE":136.0638,"ARG_OF_PERICENTER":220.3419,"MEAN_ANOMALY":139.6997,"EPHEMERIS_TYPE":0,"CLASSIFICATION_TYPE":"U","NORAD_CAT_ID":54253,"ELEMENT_SET_NO":999,"REV_AT_EPOCH":6586,"BSTAR":0.0007749,"MEAN_MOTION_DOT":0.00015945,"MEAN_MOTION_DDOT":0},{"OBJECT_NAME":"JILIN-1 GAOFEN 03D54","OBJECT_ID":"2022-155D","EPOCH":"2024-01-25T19:05:12.351840","MEAN_MOTION":15.18473183,"ECCENTRICITY":0.001187,"INCLINATION":97.5525,"RA_OF_ASC_NODE":136.0733,"ARG_OF_PERICENTER":222.1667,"MEAN_ANOMALY":137.8655,"EPHEMERIS_TYPE":0,"CLASSIFICATION_TYPE":"U","NORAD_CAT_ID":54254,"ELEMENT_SET_NO":999,"REV_AT_EPOCH":6587,"BSTAR":0.00077849,"MEAN_MOTION_DOT":0.00016027,"MEAN_MOTION_DDOT":0},{"OBJECT_NAME":"JILIN-1 GAOFEN 03D52","OBJECT_ID":"2022-155E","EPOCH":"2024-01-25T20:07:41.625408","MEAN_MOTION":15.18486091,"ECCENTRICITY":0.001302,"INCLINATION":97.5496,"RA_OF_ASC_NODE":136.0034,"ARG_OF_PERICENTER":220.7753,"MEAN_ANOMALY":139.2508,"EPHEMERIS_TYPE":0,"CLASSIFICATION_TYPE":"U","NORAD_CAT_ID":54255,"ELEMENT_SET_NO":999,"REV_AT_EPOCH":6588,"BSTAR":0.00080335,"MEAN_MOTION_DOT":0.00016554,"MEAN_MOTION_DDOT":0},{"OBJECT_NAME":"EUTELSAT 10B","OBJECT_ID":"2022-157A","EPOCH":"2024-01-25T13:08:35.554272","MEAN_MOTION":1.00268647,"ECCENTRICITY":0.0005917,"INCLINATION":0.0535,"RA_OF_ASC_NODE":92.1959,"ARG_OF_PERICENTER":178.6558,"MEAN_ANOMALY":60.6033,"EPHEMERIS_TYPE":0,"CLASSIFICATION_TYPE":"U","NORAD_CAT_ID":54259,"ELEMENT_SET_NO":999,"REV_AT_EPOCH":426,"BSTAR":0,"MEAN_MOTION_DOT":6.8e-7,"MEAN_MOTION_DDOT":0},{"OBJECT_NAME":"EOS-6 (OCEANSAT-3)","OBJECT_ID":"2022-158A","EPOCH":"2024-01-25T19:25:55.590816","MEAN_MOTION":14.46979073,"ECCENTRICITY":9.39e-5,"INCLINATION":98.3517,"RA_OF_ASC_NODE":124.8109,"ARG_OF_PERICENTER":94.482,"MEAN_ANOMALY":265.648,"EPHEMERIS_TYPE":0,"CLASSIFICATION_TYPE":"U","NORAD_CAT_ID":54361,"ELEMENT_SET_NO":999,"REV_AT_EPOCH":6153,"BSTAR":0.00024374,"MEAN_MOTION_DOT":8.42e-6,"MEAN_MOTION_DDOT":0},{"OBJECT_NAME":"2022-158B","OBJECT_ID":"2022-158B","EPOCH":"2024-01-25T19:46:17.420736","MEAN_MOTION":15.22954144,"ECCENTRICITY":0.0020534,"INCLINATION":97.4589,"RA_OF_ASC_NODE":126.153,"ARG_OF_PERICENTER":202.0194,"MEAN_ANOMALY":158.0162,"EPHEMERIS_TYPE":0,"CLASSIFICATION_TYPE":"U","NORAD_CAT_ID":54362,"ELEMENT_SET_NO":999,"REV_AT_EPOCH":6461,"BSTAR":0.00046246,"MEAN_MOTION_DOT":0.00010857,"MEAN_MOTION_DDOT":0},{"OBJECT_NAME":"THYBOLT-1","OBJECT_ID":"2022-158C","EPOCH":"2024-01-25T19:57:32.377536","MEAN_MOTION":15.49533466,"ECCENTRICITY":0.0005044,"INCLINATION":97.4389,"RA_OF_ASC_NODE":132.2534,"ARG_OF_PERICENTER":205.5299,"MEAN_ANOMALY":154.5704,"EPHEMERIS_TYPE":0,"CLASSIFICATION_TYPE":"U","NORAD_CAT_ID":54363,"ELEMENT_SET_NO":999,"REV_AT_EPOCH":6508,"BSTAR":0.0016264,"MEAN_MOTION_DOT":0.00090508,"MEAN_MOTION_DDOT":0},{"OBJECT_NAME":"THYBOLT-2","OBJECT_ID":"2022-158D","EPOCH":"2024-01-25T19:31:49.804896","MEAN_MOTION":15.48885203,"ECCENTRICITY":0.0005097,"INCLINATION":97.4389,"RA_OF_ASC_NODE":132.1276,"ARG_OF_PERICENTER":202.9479,"MEAN_ANOMALY":157.1544,"EPHEMERIS_TYPE":0,"CLASSIFICATION_TYPE":"U","NORAD_CAT_ID":54364,"ELEMENT_SET_NO":999,"REV_AT_EPOCH":6507,"BSTAR":0.0015492,"MEAN_MOTION_DOT":0.00084209,"MEAN_MOTION_DDOT":0},{"OBJECT_NAME":"INS-2B","OBJECT_ID":"2022-158E","EPOCH":"2024-01-25T19:17:44.576160","MEAN_MOTION":15.46790622,"ECCENTRICITY":0.0005856,"INCLINATION":97.4368,"RA_OF_ASC_NODE":131.6093,"ARG_OF_PERICENTER":211.3793,"MEAN_ANOMALY":148.7108,"EPHEMERIS_TYPE":0,"CLASSIFICATION_TYPE":"U","NORAD_CAT_ID":54365,"ELEMENT_SET_NO":999,"REV_AT_EPOCH":6505,"BSTAR":0.0014561,"MEAN_MOTION_DOT":0.00073515,"MEAN_MOTION_DDOT":0},{"OBJECT_NAME":"ANAND","OBJECT_ID":"2022-158F","EPOCH":"2024-01-25T19:45:26.187264","MEAN_MOTION":15.40064462,"ECCENTRICITY":0.0006236,"INCLINATION":97.4364,"RA_OF_ASC_NODE":130.2833,"ARG_OF_PERICENTER":206.038,"MEAN_ANOMALY":154.0553,"EPHEMERIS_TYPE":0,"CLASSIFICATION_TYPE":"U","NORAD_CAT_ID":54366,"ELEMENT_SET_NO":999,"REV_AT_EPOCH":6497,"BSTAR":0.00097629,"MEAN_MOTION_DOT":0.00039123,"MEAN_MOTION_DDOT":0},{"OBJECT_NAME":"ASTROCAST-0304","OBJECT_ID":"2022-158G","EPOCH":"2024-01-25T19:43:24.228480","MEAN_MOTION":15.29466363,"ECCENTRICITY":0.0007644,"INCLINATION":97.4404,"RA_OF_ASC_NODE":128.2175,"ARG_OF_PERICENTER":218.3357,"MEAN_ANOMALY":141.7341,"EPHEMERIS_TYPE":0,"CLASSIFICATION_TYPE":"U","NORAD_CAT_ID":54367,"ELEMENT_SET_NO":999,"REV_AT_EPOCH":6481,"BSTAR":0.00055134,"MEAN_MOTION_DOT":0.00015703,"MEAN_MOTION_DDOT":0},{"OBJECT_NAME":"ASTROCAST-0303","OBJECT_ID":"2022-158H","EPOCH":"2024-01-25T19:25:52.549536","MEAN_MOTION":15.30223656,"ECCENTRICITY":0.0005344,"INCLINATION":97.4442,"RA_OF_ASC_NODE":128.563,"ARG_OF_PERICENTER":226.6979,"MEAN_ANOMALY":133.3817,"EPHEMERIS_TYPE":0,"CLASSIFICATION_TYPE":"U","NORAD_CAT_ID":54368,"ELEMENT_SET_NO":999,"REV_AT_EPOCH":6483,"BSTAR":0.00051232,"MEAN_MOTION_DOT":0.00014923,"MEAN_MOTION_DDOT":0},{"OBJECT_NAME":"ASTROCAST-0302","OBJECT_ID":"2022-158J","EPOCH":"2024-01-25T18:55:58.006848","MEAN_MOTION":15.29455098,"ECCENTRICITY":0.0005071,"INCLINATION":97.4435,"RA_OF_ASC_NODE":128.4007,"ARG_OF_PERICENTER":231.6405,"MEAN_ANOMALY":128.438,"EPHEMERIS_TYPE":0,"CLASSIFICATION_TYPE":"U","NORAD_CAT_ID":54369,"ELEMENT_SET_NO":999,"REV_AT_EPOCH":6482,"BSTAR":0.00056452,"MEAN_MOTION_DOT":0.00016068,"MEAN_MOTION_DDOT":0},{"OBJECT_NAME":"ASTROCAST-0301","OBJECT_ID":"2022-158K","EPOCH":"2024-01-25T20:04:37.859520","MEAN_MOTION":15.29350596,"ECCENTRICITY":0.0006463,"INCLINATION":97.445,"RA_OF_ASC_NODE":128.5488,"ARG_OF_PERICENTER":235.9285,"MEAN_ANOMALY":124.1342,"EPHEMERIS_TYPE":0,"CLASSIFICATION_TYPE":"U","NORAD_CAT_ID":54370,"ELEMENT_SET_NO":999,"REV_AT_EPOCH":6483,"BSTAR":0.0004916,"MEAN_MOTION_DOT":0.00013937,"MEAN_MOTION_DDOT":0},{"OBJECT_NAME":"YAOGAN-36 03A","OBJECT_ID":"2022-160A","EPOCH":"2024-01-25T14:36:07.701408","MEAN_MOTION":15.23257576,"ECCENTRICITY":0.0001791,"INCLINATION":34.9976,"RA_OF_ASC_NODE":76.7154,"ARG_OF_PERICENTER":203.7103,"MEAN_ANOMALY":156.3529,"EPHEMERIS_TYPE":0,"CLASSIFICATION_TYPE":"U","NORAD_CAT_ID":54372,"ELEMENT_SET_NO":999,"REV_AT_EPOCH":6474,"BSTAR":0.0010332,"MEAN_MOTION_DOT":0.0002513,"MEAN_MOTION_DDOT":0}]
